COSMOS_2436-723
1 32395U 07065C   23124.04841088  .00000009  00000+0  00000+0 0  9992
2 32395  64.3525 230.5580 0015837   3.5232 353.4786  2.13103004119439
